[{"OBJECT_NAME":"ONEWEB-0562","OBJECT_ID":"2023-029D","EPOCH":"2026-03-09T16:17:10.919904","MEAN_MOTION":13.20770955,"ECCENTRICITY":8.723e-5,"INCLINATION":87.9163,"RA_OF_ASC_NODE":294.3285,"ARG_OF_PERICENTER":61.6933,"MEAN_ANOMALY":298.4288,"EPHEMERIS_TYPE":0,"CLASSIFICATION_TYPE":"U","NORAD_CAT_ID":55799,"ELEMENT_SET_NO":999,"REV_AT_EPOCH":14801,"BSTAR":-0.00043162314,"MEAN_MOTION_DOT":-1.63e-6,"MEAN_MOTION_DDOT":0},{"OBJECT_NAME":"SCOUT G-1 DEB","OBJECT_ID":"1988-033G","EPOCH":"2026-03-08T13:27:39.001248","MEAN_MOTION":13.22040375,"ECCENTRICITY":0.02501383,"INCLINATION":89.8326,"RA_OF_ASC_NODE":279.3188,"ARG_OF_PERICENTER":27.8245,"MEAN_ANOMALY":37.5612,"EPHEMERIS_TYPE":0,"CLASSIFICATION_TYPE":"U","NORAD_CAT_ID":19181,"ELEMENT_SET_NO":999,"REV_AT_EPOCH":82400,"BSTAR":0.00039524614,"MEAN_MOTION_DOT":2.03e-6,"MEAN_MOTION_DDOT":0}]
